OBJECT_NAME,OBJECT_ID,EPOCH,MEAN_MOTION,ECCENTRICITY,INCLINATION,RA_OF_ASC_NODE,ARG_OF_PERICENTER,MEAN_ANOMALY,EPHEMERIS_TYPE,CLASSIFICATION_TYPE,NORAD_CAT_ID,ELEMENT_SET_NO,REV_AT_EPOCH,BSTAR,MEAN_MOTION_DOT,MEAN_MOTION_DDOT
LEMUR-2-ARIANNA,2025-009CU,2026-06-11T18:18:55.960416,15.02404456,.00036015,97.6894,244.1896,131.9631,228.1901,0,U,62699,999,7674,.56191349E-3,.7386E-4,0
LEMUR-2-ALISIA,2025-009DB,2026-06-11T17:48:36.344448,15.02692947,.00013622,97.6969,244.9490,189.5971,170.5228,0,U,62706,999,9934,.51929583E-3,.6873E-4,0
LEMUR-2-ROUNDTRIPPER,2025-009DG,2026-06-11T18:29:22.519392,15.03700151,.00047582,97.7253,245.4570,148.5367,211.6143,0,U,62711,999,7681,.59142682E-3,.8051E-4,0
LEMUR-2-MYNAMEISJEFF,2025-009DH,2026-06-11T18:27:07.905600,15.03713228,.00029596,97.7302,245.8332,172.2855,187.8416,0,U,62712,999,7681,.5692825E-3,.7748E-4,0
LEMUR-2-LEIA-PHILIP,2025-052AN,2026-06-11T15:45:33.946560,14.97304634,.00020964,97.6848,54.7005,230.2927,129.8111,0,U,63246,999,6784,.16196527E-3,.1821E-4,0
LEMUR-2-LIA-MARTIN,2025-052AQ,2026-06-11T15:55:21.064800,14.97762205,.00025923,97.6919,55.1739,164.8296,195.3004,0,U,63248,999,6785,.37929636E-3,.4394E-4,0
LEMUR-2-DELOITTE-1,2025-052BB,2026-06-11T16:56:29.511168,14.97560412,.0002913,97.6925,55.5445,108.5002,251.6536,0,U,63259,999,6787,.3287E-3,.378E-4,0
LEMUR-2-EMERSONROSE,2025-052BD,2026-06-11T16:28:31.376064,14.99042683,.00021051,97.6903,56.0742,67.0289,293.1156,0,U,63261,999,6791,.2752901E-3,.3281E-4,0
LEMUR-2-MARACHE-FRAN,2025-052BE,2026-06-11T15:58:20.982432,15.00045395,.0005925,97.6956,56.3574,41.5643,318.6030,0,U,63262,999,6793,.44713341E-3,.5511E-4,0
LEMUR-2-THEFALCONER,2025-052BG,2026-06-11T15:57:09.000000,14.97356604,.00033214,97.6886,55.1306,51.0273,309.1245,0,U,63264,999,6786,.29015026E-3,.3312E-4,0
LEMUR-2-UNTITLED-SC,2025-061A,2026-06-11T22:21:36.912672,15.13435168,.00170128,97.5630,138.3318,284.8364,75.0982,0,U,63351,999,6679,.18654197E-3,.3277E-4,0
LEMUR-2-ESPERANZA,2025-061B,2026-06-11T21:49:09.287328,15.13528102,.0016568,97.5637,138.4016,284.2563,75.6828,0,U,63352,999,6679,.16285596E-3,.2859E-4,0
LEMUR-2-KREMPEL-BRO2,2025-061C,2026-06-11T22:30:11.409984,15.13965304,.00174752,97.5684,138.9565,275.6380,84.2858,0,U,63353,999,6681,.20806674E-3,.3719E-4,0
LEMUR-2-THERMORAPTOR,2025-061D,2026-06-11T22:04:45.580800,15.14043810,.00171087,97.5687,139.0136,274.5927,85.3350,0,U,63354,999,6681,.17821292E-3,.3182E-4,0
LEMUR-2-NEUROSPICY,2025-061E,2026-06-11T21:24:32.855616,15.14157004,.00150376,97.5613,138.6160,278.8373,81.1155,0,U,63355,999,6681,.20190746E-3,.3623E-4,0
LEMUR-2-TILLINFINITY,2025-061F,2026-06-11T22:18:16.126848,15.14744479,.0016209,97.5601,138.9402,265.3550,94.5830,0,U,63356,999,6684,.1801921E-3,.3282E-4,0
LEMUR-2-KREMPEL-BRO1,2025-061G,2026-06-11T21:39:05.696064,15.14548678,.00168575,97.5600,138.8305,266.8130,93.1173,0,U,63357,999,6683,.17370415E-3,.3145E-4,0
LEMUR-2-LANGER2SPACE,2025-061H,2026-06-11T20:40:35.231232,15.14246572,.00148663,97.5606,138.6063,277.1516,82.8025,0,U,63358,999,6681,.186957E-3,.3358E-4,0
LEMUR-2-BALTO,2025-052BH,2026-06-11T15:36:12.084768,15.00025752,.00068124,97.6893,56.3243,71.7793,288.4172,0,U,63395,999,6793,.44037744E-3,.5424E-4,0
LEMUR-2-KRISH,2025-135AK,2026-06-11T18:59:00.209760,14.96154074,.00015181,97.7730,277.7048,106.6610,253.4778,0,U,64561,999,5311,.41869914E-3,.4658E-4,0
LEMUR-2-HUBBLE-4,2025-135AP,2026-06-11T18:36:35.248608,14.93181271,.00013122,97.7694,276.7474,341.4764,18.6408,0,U,64565,999,5306,.11308991E-3,.1124E-4,0
LEMUR-2-SEJONG-2,2025-135BL,2026-06-11T22:57:17.056224,14.96658829,.00042631,97.7686,278.0138,3.4939,356.6311,0,U,64586,999,5316,.28593286E-3,.3204E-4,0
LEMUR-2-HUBBLE-5,2025-135BT,2026-06-11T20:48:13.294656,14.94120161,.00055005,97.7713,277.4627,12.5709,347.5647,0,U,64840,999,5311,.16540662E-3,.1712E-4,0
LEMUR-2-KARENDARRELL,2025-135BU,2026-06-11T20:21:49.507488,15.00033086,.00093189,97.7670,279.0662,222.6976,137.3523,0,U,64841,999,5321,.56477743E-3,.6978E-4,0
LEMUR-2-LUCILLE-ROSE,2025-135BV,2026-06-11T13:20:00.866112,15.00083531,.0010793,97.7768,278.7865,304.7867,55.2340,0,U,65403,999,4779,.52049E-3,.6436E-4,0
LEMUR-2-AFFIE-WAUWIE,2025-248C,2026-06-10T06:03:03.284640,15.26939127,.0008368,45.3855,152.5549,38.3394,321.8088,0,U,66295,999,3353,.48614E-3,.12829E-3,0
LEMUR-2-DEANANDMAEVE,2025-276N,2026-06-11T17:13:47.290944,15.19665600,.00062471,97.4216,236.2843,32.7968,327.3654,0,U,66678,999,2958,.27356062E-3,.577E-4,0
LEMUR-2-STAS-GORBUK,2025-276W,2026-06-11T17:32:52.502208,15.19323108,.00056557,97.4253,236.3526,33.5357,326.6235,0,U,66686,999,2958,.2446259E-3,.5101E-4,0
LEMUR-2-TEODOR,2025-276DG,2026-06-11T22:02:19.892256,15.20992318,.00020098,97.4156,236.7665,121.2251,238.9182,0,U,66768,999,2964,.22464511E-3,.4912E-4,0
