LEMUR-2-ARIANNA         
1 62699U 25009CU  26162.76314769  .00007386  00000+0  56191-3 0  9996
2 62699  97.6894 244.1896 0003601 131.9631 228.1901 15.02404456 76743
LEMUR-2-ALISIA          
1 62706U 25009DB  26162.74208732  .00006873  00000+0  51930-3 0  9991
2 62706  97.6969 244.9490 0001362 189.5971 170.5228 15.02692947 99348
LEMUR-2-ROUNDTRIPPER    
1 62711U 25009DG  26162.77039953  .00008051  00000+0  59143-3 0  9991
2 62711  97.7253 245.4570 0004758 148.5367 211.6143 15.03700151 76810
LEMUR-2-MYNAMEISJEFF    
1 62712U 25009DH  26162.76884150  .00007748  00000+0  56928-3 0  9998
2 62712  97.7302 245.8332 0002959 172.2855 187.8416 15.03713228 76819
LEMUR-2-LEIA-PHILIP     
1 63246U 25052AN  26162.65664290  .00001821  00000+0  16197-3 0  9998
2 63246  97.6848  54.7005 0002096 230.2927 129.8111 14.97304634 67847
LEMUR-2-LIA-MARTIN      
1 63248U 25052AQ  26162.66343825  .00004394  00000+0  37930-3 0  9995
2 63248  97.6919  55.1739 0002592 164.8296 195.3004 14.97762205 67851
LEMUR-2-DELOITTE-1      
1 63259U 25052BB  26162.70589712  .00003780  00000+0  32870-3 0  9995
2 63259  97.6925  55.5445 0002913 108.5002 251.6536 14.97560412 67879
LEMUR-2-EMERSONROSE     
1 63261U 25052BD  26162.68647426  .00003281  00000+0  27529-3 0  9993
2 63261  97.6903  56.0742 0002105  67.0289 293.1156 14.99042683 67914
LEMUR-2-MARACHE-FRAN    
1 63262U 25052BE  26162.66552063  .00005511  00000+0  44713-3 0  9996
2 63262  97.6956  56.3574 0005925  41.5643 318.6030 15.00045395 67935
LEMUR-2-THEFALCONER     
1 63264U 25052BG  26162.66468750  .00003312  00000+0  29015-3 0  9992
2 63264  97.6886  55.1306 0003321  51.0273 309.1245 14.97356604 67860
LEMUR-2-UNTITLED-SC     
1 63351U 25061A   26162.93167723  .00003277  00000+0  18654-3 0  9992
2 63351  97.5630 138.3318 0017012 284.8364  75.0982 15.13435168 66799
LEMUR-2-ESPERANZA       
1 63352U 25061B   26162.90913527  .00002859  00000+0  16286-3 0  9995
2 63352  97.5637 138.4016 0016568 284.2563  75.6828 15.13528102 66799
LEMUR-2-KREMPEL-BRO2    
1 63353U 25061C   26162.93763206  .00003719  00000+0  20807-3 0  9996
2 63353  97.5684 138.9565 0017475 275.6380  84.2858 15.13965304 66816
LEMUR-2-THERMORAPTOR    
1 63354U 25061D   26162.91997200  .00003182  00000+0  17821-3 0  9994
2 63354  97.5687 139.0136 0017108 274.5927  85.3350 15.14043810 66813
LEMUR-2-NEUROSPICY      
1 63355U 25061E   26162.89204694  .00003623  00000+0  20191-3 0  9994
2 63355  97.5613 138.6160 0015037 278.8373  81.1155 15.14157004 66814
LEMUR-2-TILLINFINITY    
1 63356U 25061F   26162.92935332  .00003282  00000+0  18019-3 0  9996
2 63356  97.5601 138.9402 0016209 265.3550  94.5830 15.14744479 66843
LEMUR-2-KREMPEL-BRO1    
1 63357U 25061G   26162.90214926  .00003145  00000+0  17370-3 0  9991
2 63357  97.5600 138.8305 0016857 266.8130  93.1173 15.14548678 66830
LEMUR-2-LANGER2SPACE    
1 63358U 25061H   26162.86151888  .00003358  00000+0  18696-3 0  9992
2 63358  97.5606 138.6063 0014866 277.1516  82.8025 15.14246572 66814
LEMUR-2-BALTO           
1 63395U 25052BH  26162.65013987  .00005424  00000+0  44038-3 0  9992
2 63395  97.6893  56.3243 0006812  71.7793 288.4172 15.00025752 67938
LEMUR-2-KRISH           
1 64561U 25135AK  26162.79097465  .00004658  00000+0  41870-3 0  9997
2 64561  97.7730 277.7048 0001518 106.6610 253.4778 14.96154074 53114
LEMUR-2-HUBBLE-4        
1 64565U 25135AP  26162.77540797  .00001124  00000+0  11309-3 0  9999
2 64565  97.7694 276.7474 0001312 341.4764  18.6408 14.93181271 53061
LEMUR-2-SEJONG-2        
1 64586U 25135BL  26162.95644741  .00003204  00000+0  28593-3 0  9990
2 64586  97.7686 278.0138 0004263   3.4939 356.6311 14.96658829 53164
LEMUR-2-HUBBLE-5        
1 64840U 25135BT  26162.86682054  .00001712  00000+0  16541-3 0  9994
2 64840  97.7713 277.4627 0005500  12.5709 347.5647 14.94120161 53112
LEMUR-2-KARENDARRELL    
1 64841U 25135BU  26162.84848967  .00006978  00000+0  56478-3 0  9992
2 64841  97.7670 279.0662 0009318 222.6976 137.3523 15.00033086 53219
LEMUR-2-LUCILLE-ROSE    
1 65403U 25135BV  26162.55556558  .00006436  00000+0  52049-3 0  9996
2 65403  97.7768 278.7865 0010793 304.7867  55.2340 15.00083531 47794
LEMUR-2-AFFIE-WAUWIE    
1 66295U 25248C   26161.25212135  .00012829  00000+0  48614-3 0  9993
2 66295  45.3855 152.5549 0008368  38.3394 321.8088 15.26939127 33535
LEMUR-2-DEANANDMAEVE    
1 66678U 25276N   26162.71790846  .00005770  00000+0  27356-3 0  9998
2 66678  97.4216 236.2843 0006247  32.7968 327.3654 15.19665600 29589
LEMUR-2-STAS-GORBUK     
1 66686U 25276W   26162.73116322  .00005101  00000+0  24463-3 0  9994
2 66686  97.4253 236.3526 0005655  33.5357 326.6235 15.19323108 29582
LEMUR-2-TEODOR          
1 66768U 25276DG  26162.91828579  .00004912  00000+0  22465-3 0  9998
2 66768  97.4156 236.7665 0002009 121.2251 238.9182 15.20992318 29641
